{
  "type": "FeatureCollection",
  "features": [
    {
      "type": "Feature",
      "properties": {
        "norad_id": 28890,
        "name": "BEIJING 1",
        "group": "dmc",
        "lat": -58.984540727699816,
        "lon": 126.20054038780489,
        "alt_km": 698.9883960059151,
        "timestamp": "2025-12-10T16:57:11.301259+00:00",
        "meta_object_name": "BEIJING 1",
        "meta_object_id": "2005-043A",
        "meta_epoch": "2025-12-10T12:18:16.509312",
        "meta_mean_motion": 14.63362202,
        "meta_eccentricity": 0.0015187,
        "meta_inclination": 98.2657,
        "meta_ra_of_asc_node": 112.0144,
        "meta_arg_of_pericenter": 147.8701,
        "meta_mean_anomaly": 212.3429,
        "meta_ephemeris_type": 0,
        "meta_classification_type": "U",
        "meta_norad_cat_id": 28890,
        "meta_element_set_no": 999,
        "meta_rev_at_epoch": 7305,
        "meta_bstar": 0.00010417,
        "meta_mean_motion_dot": 4.9e-06,
        "meta_mean_motion_ddot": 0,
        "tle_line1": "1 28890U 05043A   25344.51269108  .00000490  00000+0  10417-3 0  9997",
        "tle_line2": "2 28890  98.2657 112.0144 0015187 147.8701 212.3429 14.63362202 73056"
      },
      "geometry": {
        "type": "Point",
        "coordinates": [
          126.20054038780489,
          -58.984540727699816
        ]
      }
    },
    {
      "type": "Feature",
      "properties": {
        "norad_id": 33320,
        "name": "HUANJING 1A (HJ-1A)",
        "group": "dmc",
        "lat": -1.3478078687019504,
        "lon": 152.9083573312776,
        "alt_km": 632.8204267436213,
        "timestamp": "2025-12-10T16:57:11.301283+00:00",
        "meta_object_name": "HUANJING 1A (HJ-1A)",
        "meta_object_id": "2008-041A",
        "meta_epoch": "2025-12-10T12:54:07.853760",
        "meta_mean_motion": 14.83382865,
        "meta_eccentricity": 0.0020336,
        "meta_inclination": 97.6544,
        "meta_ra_of_asc_node": 332.9279,
        "meta_arg_of_pericenter": 41.4254,
        "meta_mean_anomaly": 318.8498,
        "meta_ephemeris_type": 0,
        "meta_classification_type": "U",
        "meta_norad_cat_id": 33320,
        "meta_element_set_no": 999,
        "meta_rev_at_epoch": 93043,
        "meta_bstar": 0.00025642,
        "meta_mean_motion_dot": 2.059e-05,
        "meta_mean_motion_ddot": 0,
        "tle_line1": "1 33320U 08041A   25344.53759090  .00002059  00000+0  25642-3 0  9997",
        "tle_line2": "2 33320  97.6544 332.9279 0020336  41.4254 318.8498 14.83382865930435"
      },
      "geometry": {
        "type": "Point",
        "coordinates": [
          152.9083573312776,
          -1.3478078687019504
        ]
      }
    },
    {
      "type": "Feature",
      "properties": {
        "norad_id": 33321,
        "name": "HUANJING 1B (HJ-1B)",
        "group": "dmc",
        "lat": 45.52535084426848,
        "lon": -31.066068136623056,
        "alt_km": 594.7911042703363,
        "timestamp": "2025-12-10T16:57:11.301297+00:00",
        "meta_object_name": "HUANJING 1B (HJ-1B)",
        "meta_object_id": "2008-041B",
        "meta_epoch": "2025-12-10T11:53:18.038688",
        "meta_mean_motion": 14.82812501,
        "meta_eccentricity": 0.0038291,
        "meta_inclination": 97.6401,
        "meta_ra_of_asc_node": 336.5901,
        "meta_arg_of_pericenter": 82.6677,
        "meta_mean_anomaly": 277.8887,
        "meta_ephemeris_type": 0,
        "meta_classification_type": "U",
        "meta_norad_cat_id": 33321,
        "meta_element_set_no": 999,
        "meta_rev_at_epoch": 93044,
        "meta_bstar": 0.00025179,
        "meta_mean_motion_dot": 2.011e-05,
        "meta_mean_motion_ddot": 0,
        "tle_line1": "1 33321U 08041B   25344.49534767  .00002011  00000+0  25179-3 0  9998",
        "tle_line2": "2 33321  97.6401 336.5901 0038291  82.6677 277.8887 14.82812501930446"
      },
      "geometry": {
        "type": "Point",
        "coordinates": [
          -31.066068136623056,
          45.52535084426848
        ]
      }
    },
    {
      "type": "Feature",
      "properties": {
        "norad_id": 33446,
        "name": "YAOGAN-4",
        "group": "dmc",
        "lat": -40.673428809513965,
        "lon": -78.30558437691668,
        "alt_km": 618.0162306287575,
        "timestamp": "2025-12-10T16:57:11.301310+00:00",
        "meta_object_name": "YAOGAN-4",
        "meta_object_id": "2008-061A",
        "meta_epoch": "2025-12-10T09:02:22.074432",
        "meta_mean_motion": 14.82671071,
        "meta_eccentricity": 0.0013772,
        "meta_inclination": 97.918,
        "meta_ra_of_asc_node": 274.4991,
        "meta_arg_of_pericenter": 331.4072,
        "meta_mean_anomaly": 28.6385,
        "meta_ephemeris_type": 0,
        "meta_classification_type": "U",
        "meta_norad_cat_id": 33446,
        "meta_element_set_no": 999,
        "meta_rev_at_epoch": 91768,
        "meta_bstar": 0.0003126,
        "meta_mean_motion_dot": 2.471e-05,
        "meta_mean_motion_ddot": 0,
        "tle_line1": "1 33446U 08061A   25344.37664438  .00002471  00000+0  31260-3 0  9992",
        "tle_line2": "2 33446  97.9180 274.4991 0013772 331.4072  28.6385 14.82671071917682"
      },
      "geometry": {
        "type": "Point",
        "coordinates": [
          -78.30558437691668,
          -40.673428809513965
        ]
      }
    },
    {
      "type": "Feature",
      "properties": {
        "norad_id": 35681,
        "name": "DEIMOS-1",
        "group": "dmc",
        "lat": 34.20435072230263,
        "lon": -29.309076523175147,
        "alt_km": 642.2736869382488,
        "timestamp": "2025-12-10T16:57:11.301321+00:00",
        "meta_object_name": "DEIMOS-1",
        "meta_object_id": "2009-041A",
        "meta_epoch": "2025-12-10T11:24:43.542144",
        "meta_mean_motion": 14.74946165,
        "meta_eccentricity": 0.0002742,
        "meta_inclination": 97.7148,
        "meta_ra_of_asc_node": 145.1841,
        "meta_arg_of_pericenter": 83.0149,
        "meta_mean_anomaly": 277.1373,
        "meta_ephemeris_type": 0,
        "meta_classification_type": "U",
        "meta_norad_cat_id": 35681,
        "meta_element_set_no": 999,
        "meta_rev_at_epoch": 87906,
        "meta_bstar": 0.00014099,
        "meta_mean_motion_dot": 9e-06,
        "meta_mean_motion_ddot": 0,
        "tle_line1": "1 35681U 09041A   25344.47550396  .00000900  00000+0  14099-3 0  9998",
        "tle_line2": "2 35681  97.7148 145.1841 0002742  83.0149 277.1373 14.74946165879062"
      },
      "geometry": {
        "type": "Point",
        "coordinates": [
          -29.309076523175147,
          34.20435072230263
        ]
      }
    },
    {
      "type": "Feature",
      "properties": {
        "norad_id": 35683,
        "name": "UK-DMC 2",
        "group": "dmc",
        "lat": 24.16058588443451,
        "lon": -56.7823072969686,
        "alt_km": 642.1307131823196,
        "timestamp": "2025-12-10T16:57:11.301332+00:00",
        "meta_object_name": "UK-DMC 2",
        "meta_object_id": "2009-041C",
        "meta_epoch": "2025-12-10T12:59:45.772800",
        "meta_mean_motion": 14.75613974,
        "meta_eccentricity": 0.0001404,
        "meta_inclination": 97.8564,
        "meta_ra_of_asc_node": 119.5063,
        "meta_arg_of_pericenter": 96.5399,
        "meta_mean_anomaly": 263.597,
        "meta_ephemeris_type": 0,
        "meta_classification_type": "U",
        "meta_norad_cat_id": 35683,
        "meta_element_set_no": 999,
        "meta_rev_at_epoch": 87874,
        "meta_bstar": 0.00025317,
        "meta_mean_motion_dot": 1.678e-05,
        "meta_mean_motion_ddot": 0,
        "tle_line1": "1 35683U 09041C   25344.54150200  .00001678  00000+0  25317-3 0  9996",
        "tle_line2": "2 35683  97.8564 119.5063 0001404  96.5399 263.5970 14.75613974878744"
      },
      "geometry": {
        "type": "Point",
        "coordinates": [
          -56.7823072969686,
          24.16058588443451
        ]
      }
    },
    {
      "type": "Feature",
      "properties": {
        "norad_id": 40715,
        "name": "DMC3-FM1",
        "group": "dmc",
        "lat": 46.643102079267,
        "lon": 40.176912719446364,
        "alt_km": 611.3531611361004,
        "timestamp": "2025-12-10T16:57:11.301343+00:00",
        "meta_object_name": "DMC3-FM1",
        "meta_object_id": "2015-032A",
        "meta_epoch": "2025-12-10T11:30:27.107424",
        "meta_mean_motion": 14.85434962,
        "meta_eccentricity": 0.0004801,
        "meta_inclination": 97.669,
        "meta_ra_of_asc_node": 211.754,
        "meta_arg_of_pericenter": 331.024,
        "meta_mean_anomaly": 29.0708,
        "meta_ephemeris_type": 0,
        "meta_classification_type": "U",
        "meta_norad_cat_id": 40715,
        "meta_element_set_no": 999,
        "meta_rev_at_epoch": 56189,
        "meta_bstar": 0.00015318,
        "meta_mean_motion_dot": 1.269e-05,
        "meta_mean_motion_ddot": 0,
        "tle_line1": "1 40715U 15032A   25344.47948041  .00001269  00000+0  15318-3 0  9991",
        "tle_line2": "2 40715  97.6690 211.7540 0004801 331.0240  29.0708 14.85434962561893"
      },
      "geometry": {
        "type": "Point",
        "coordinates": [
          40.176912719446364,
          46.643102079267
        ]
      }
    },
    {
      "type": "Feature",
      "properties": {
        "norad_id": 40716,
        "name": "DMC3-FM2",
        "group": "dmc",
        "lat": 12.278525886491956,
        "lon": -148.2667874218347,
        "alt_km": 610.512308216752,
        "timestamp": "2025-12-10T16:57:11.301367+00:00",
        "meta_object_name": "DMC3-FM2",
        "meta_object_id": "2015-032B",
        "meta_epoch": "2025-12-10T13:39:51.120288",
        "meta_mean_motion": 14.85433117,
        "meta_eccentricity": 0.0005507,
        "meta_inclination": 97.6747,
        "meta_ra_of_asc_node": 213.2829,
        "meta_arg_of_pericenter": 334.5087,
        "meta_mean_anomaly": 25.5857,
        "meta_ephemeris_type": 0,
        "meta_classification_type": "U",
        "meta_norad_cat_id": 40716,
        "meta_element_set_no": 999,
        "meta_rev_at_epoch": 56190,
        "meta_bstar": 5.6887e-05,
        "meta_mean_motion_dot": 4.39e-06,
        "meta_mean_motion_ddot": 0,
        "tle_line1": "1 40716U 15032B   25344.56934167  .00000439  00000+0  56887-4 0  9991",
        "tle_line2": "2 40716  97.6747 213.2829 0005507 334.5087  25.5857 14.85433117561904"
      },
      "geometry": {
        "type": "Point",
        "coordinates": [
          -148.2667874218347,
          12.278525886491956
        ]
      }
    },
    {
      "type": "Feature",
      "properties": {
        "norad_id": 40717,
        "name": "DMC3-FM3",
        "group": "dmc",
        "lat": -74.89962075571952,
        "lon": 5.039312928597973,
        "alt_km": 618.9241381701995,
        "timestamp": "2025-12-10T16:57:11.301379+00:00",
        "meta_object_name": "DMC3-FM3",
        "meta_object_id": "2015-032C",
        "meta_epoch": "2025-12-10T12:33:58.014432",
        "meta_mean_motion": 14.85423829,
        "meta_eccentricity": 0.0004828,
        "meta_inclination": 97.6801,
        "meta_ra_of_asc_node": 214.8701,
        "meta_arg_of_pericenter": 336.2711,
        "meta_mean_anomaly": 23.8281,
        "meta_ephemeris_type": 0,
        "meta_classification_type": "U",
        "meta_norad_cat_id": 40717,
        "meta_element_set_no": 999,
        "meta_rev_at_epoch": 56190,
        "meta_bstar": 0.0001026,
        "meta_mean_motion_dot": 8.32e-06,
        "meta_mean_motion_ddot": 0,
        "tle_line1": "1 40717U 15032C   25344.52358813  .00000832  00000+0  10260-3 0  9997",
        "tle_line2": "2 40717  97.6801 214.8701 0004828 336.2711  23.8281 14.85423829561901"
      },
      "geometry": {
        "type": "Point",
        "coordinates": [
          5.039312928597973,
          -74.89962075571952
        ]
      }
    }
  ]
}